{
  "type": "FeatureCollection",
  "features": [
    {
      "type": "Feature",
      "properties": {
        "norad_id": 35455,
        "name": "COSMOS 2251 DEB",
        "group": "cosmos-2251-debris",
        "lat": -37.56856287602452,
        "lon": -81.76617097290175,
        "alt_km": 712.5771658025897,
        "timestamp": "2025-12-14T18:52:55.899530+00:00",
        "meta_object_name": "COSMOS 2251 DEB",
        "meta_object_id": "1993-036AKZ",
        "meta_epoch": "2025-12-13T21:31:37.319808",
        "meta_mean_motion": 14.49426566,
        "meta_eccentricity": 0.00991812,
        "meta_inclination": 74.0281,
        "meta_ra_of_asc_node": 292.6308,
        "meta_arg_of_pericenter": 35.8809,
        "meta_mean_anomaly": 324.8957,
        "meta_ephemeris_type": 0,
        "meta_classification_type": "U",
        "meta_norad_cat_id": 35455,
        "meta_element_set_no": 999,
        "meta_rev_at_epoch": 86560,
        "meta_bstar": 0.0018405122,
        "meta_mean_motion_dot": 7.478e-05,
        "meta_mean_motion_ddot": 0,
        "tle_line1": "1 35455U 93036AKZ 25347.89695972  .00007478  00000+0  18405-2 0  9994",
        "tle_line2": "2 35455  74.0281 292.6308 0099181  35.8809 324.8957 14.49426566865607"
      },
      "geometry": {
        "type": "Point",
        "coordinates": [
          -81.76617097290175,
          -37.56856287602452
        ]
      }
    },
    {
      "type": "Feature",
      "properties": {
        "norad_id": 35456,
        "name": "COSMOS 2251 DEB",
        "group": "cosmos-2251-debris",
        "lat": 64.00490095399962,
        "lon": -102.69528047277339,
        "alt_km": 695.3978455635424,
        "timestamp": "2025-12-14T18:52:55.899540+00:00",
        "meta_object_name": "COSMOS 2251 DEB",
        "meta_object_id": "1993-036ALA",
        "meta_epoch": "2025-12-13T01:31:56.417088",
        "meta_mean_motion": 14.69439296,
        "meta_eccentricity": 0.00660413,
        "meta_inclination": 73.9495,
        "meta_ra_of_asc_node": 116.8436,
        "meta_arg_of_pericenter": 326.4875,
        "meta_mean_anomaly": 33.2124,
        "meta_ephemeris_type": 0,
        "meta_classification_type": "U",
        "meta_norad_cat_id": 35456,
        "meta_element_set_no": 999,
        "meta_rev_at_epoch": 65880,
        "meta_bstar": 0.0025474833,
        "meta_mean_motion_dot": 0.000156,
        "meta_mean_motion_ddot": 0,
        "tle_line1": "1 35456U 93036ALA 25347.06384742  .00015600  00000+0  25475-2 0  9995",
        "tle_line2": "2 35456  73.9495 116.8436 0066041 326.4875  33.2124 14.69439296658808"
      },
      "geometry": {
        "type": "Point",
        "coordinates": [
          -102.69528047277339,
          64.00490095399962
        ]
      }
    },
    {
      "type": "Feature",
      "properties": {
        "norad_id": 35459,
        "name": "COSMOS 2251 DEB",
        "group": "cosmos-2251-debris",
        "lat": -69.39295653378477,
        "lon": 53.80328066328796,
        "alt_km": 780.640796770701,
        "timestamp": "2025-12-14T18:52:55.899551+00:00",
        "meta_object_name": "COSMOS 2251 DEB",
        "meta_object_id": "1993-036ALD",
        "meta_epoch": "2025-12-13T06:36:57.783456",
        "meta_mean_motion": 14.37463066,
        "meta_eccentricity": 0.00162707,
        "meta_inclination": 73.8693,
        "meta_ra_of_asc_node": 186.288,
        "meta_arg_of_pericenter": 133.9432,
        "meta_mean_anomaly": 226.3067,
        "meta_ephemeris_type": 0,
        "meta_classification_type": "U",
        "meta_norad_cat_id": 35459,
        "meta_element_set_no": 999,
        "meta_rev_at_epoch": 58369,
        "meta_bstar": 0.00036578266,
        "meta_mean_motion_dot": 1.069e-05,
        "meta_mean_motion_ddot": 0,
        "tle_line1": "1 35459U 93036ALD 25347.27566879  .00001069  00000+0  36578-3 0  9995",
        "tle_line2": "2 35459  73.8693 186.2880 0016270 133.9432 226.3067 14.37463066583695"
      },
      "geometry": {
        "type": "Point",
        "coordinates": [
          53.80328066328796,
          -69.39295653378477
        ]
      }
    },
    {
      "type": "Feature",
      "properties": {
        "norad_id": 35462,
        "name": "COSMOS 2251 DEB",
        "group": "cosmos-2251-debris",
        "lat": -71.33014368327589,
        "lon": 142.86920283498867,
        "alt_km": 752.645847158039,
        "timestamp": "2025-12-14T18:52:55.899561+00:00",
        "meta_object_name": "COSMOS 2251 DEB",
        "meta_object_id": "1993-036ALG",
        "meta_epoch": "2025-12-13T04:42:22.622688",
        "meta_mean_motion": 14.29303681,
        "meta_eccentricity": 0.00867962,
        "meta_inclination": 74.0363,
        "meta_ra_of_asc_node": 267.8552,
        "meta_arg_of_pericenter": 302.9014,
        "meta_mean_anomaly": 56.3806,
        "meta_ephemeris_type": 0,
        "meta_classification_type": "U",
        "meta_norad_cat_id": 35462,
        "meta_element_set_no": 999,
        "meta_rev_at_epoch": 66387,
        "meta_bstar": 0.0023872613,
        "meta_mean_motion_dot": 6.306e-05,
        "meta_mean_motion_ddot": 0,
        "tle_line1": "1 35462U 93036ALG 25347.19609517  .00006306  00000+0  23873-2 0  9999",
        "tle_line2": "2 35462  74.0363 267.8552 0086796 302.9014  56.3806 14.29303681663870"
      },
      "geometry": {
        "type": "Point",
        "coordinates": [
          142.86920283498867,
          -71.33014368327589
        ]
      }
    },
    {
      "type": "Feature",
      "properties": {
        "norad_id": 35465,
        "name": "COSMOS 2251 DEB",
        "group": "cosmos-2251-debris",
        "lat": 65.39954030286064,
        "lon": -127.97925703483803,
        "alt_km": 727.7588196730294,
        "timestamp": "2025-12-14T18:52:55.899571+00:00",
        "meta_object_name": "COSMOS 2251 DEB",
        "meta_object_id": "1993-036ALK",
        "meta_epoch": "2025-12-13T07:38:53.450880",
        "meta_mean_motion": 14.44322289,
        "meta_eccentricity": 0.00641679,
        "meta_inclination": 73.999,
        "meta_ra_of_asc_node": 195.9475,
        "meta_arg_of_pericenter": 356.1332,
        "meta_mean_anomaly": 3.932,
        "meta_ephemeris_type": 0,
        "meta_classification_type": "U",
        "meta_norad_cat_id": 35465,
        "meta_element_set_no": 999,
        "meta_rev_at_epoch": 87250,
        "meta_bstar": 0.00060617426,
        "meta_mean_motion_dot": 2.111e-05,
        "meta_mean_motion_ddot": 0,
        "tle_line1": "1 35465U 93036ALK 25347.31867420  .00002111  00000+0  60617-3 0  9993",
        "tle_line2": "2 35465  73.9990 195.9475 0064167 356.1332   3.9320 14.44322289872507"
      },
      "geometry": {
        "type": "Point",
        "coordinates": [
          -127.97925703483803,
          65.39954030286064
        ]
      }
    },
    {
      "type": "Feature",
      "properties": {
        "norad_id": 35469,
        "name": "COSMOS 2251 DEB",
        "group": "cosmos-2251-debris",
        "lat": -49.58112796889135,
        "lon": 0.35685536246310867,
        "alt_km": 769.6668473656855,
        "timestamp": "2025-12-14T18:52:55.899581+00:00",
        "meta_object_name": "COSMOS 2251 DEB",
        "meta_object_id": "1993-036ALP",
        "meta_epoch": "2025-12-13T19:56:30.477984",
        "meta_mean_motion": 14.49820874,
        "meta_eccentricity": 0.00768963,
        "meta_inclination": 74.0172,
        "meta_ra_of_asc_node": 21.8189,
        "meta_arg_of_pericenter": 176.9201,
        "meta_mean_anomaly": 183.2449,
        "meta_ephemeris_type": 0,
        "meta_classification_type": "U",
        "meta_norad_cat_id": 35469,
        "meta_element_set_no": 999,
        "meta_rev_at_epoch": 88127,
        "meta_bstar": 0.00014014105,
        "meta_mean_motion_dot": 5.32e-06,
        "meta_mean_motion_ddot": 0,
        "tle_line1": "1 35469U 93036ALP 25347.83090831  .00000532  00000+0  14014-3 0  9993",
        "tle_line2": "2 35469  74.0172  21.8189 0076896 176.9201 183.2449 14.49820874881275"
      },
      "geometry": {
        "type": "Point",
        "coordinates": [
          0.35685536246310867,
          -49.58112796889135
        ]
      }
    },
    {
      "type": "Feature",
      "properties": {
        "norad_id": 35475,
        "name": "COSMOS 2251 DEB",
        "group": "cosmos-2251-debris",
        "lat": -49.94712786651474,
        "lon": 141.72667959882256,
        "alt_km": 664.0180114268678,
        "timestamp": "2025-12-14T18:52:55.899591+00:00",
        "meta_object_name": "COSMOS 2251 DEB",
        "meta_object_id": "1993-036ALV",
        "meta_epoch": "2025-12-13T18:37:05.942208",
        "meta_mean_motion": 14.69763916,
        "meta_eccentricity": 0.00205516,
        "meta_inclination": 74.0215,
        "meta_ra_of_asc_node": 163.6147,
        "meta_arg_of_pericenter": 236.5604,
        "meta_mean_anomaly": 123.3602,
        "meta_ephemeris_type": 0,
        "meta_classification_type": "U",
        "meta_norad_cat_id": 35475,
        "meta_element_set_no": 999,
        "meta_rev_at_epoch": 65632,
        "meta_bstar": 0.0021884107,
        "meta_mean_motion_dot": 0.0001309,
        "meta_mean_motion_ddot": 0,
        "tle_line1": "1 35475U 93036ALV 25347.77576322  .00013090  00000+0  21884-2 0  9992",
        "tle_line2": "2 35475  74.0215 163.6147 0020551 236.5604 123.3602 14.69763916656323"
      },
      "geometry": {
        "type": "Point",
        "coordinates": [
          141.72667959882256,
          -49.94712786651474
        ]
      }
    }
  ]
}